CCSDS_OMM_VERS = 2.0
CREATION_DATE  = 
ORIGINATOR     = 

OBJECT_NAME    = XRISM
OBJECT_ID      = 2023-137A
CENTER_NAME    = EARTH
REF_FRAME      = TEME
TIME_SYSTEM    = UTC
MEAN_ELEMENT_THEORY = SGP/SGP4

EPOCH          = 2026-03-27T22:21:33.226848
MEAN_MOTION    = 15.11705198
ECCENTRICITY   = .00079614
INCLINATION    = 31.0015
RA_OF_ASC_NODE = 165.6537
ARG_OF_PERICENTER = 222.9468
MEAN_ANOMALY   = 137.0550

EPHEMERIS_TYPE = 0
CLASSIFICATION_TYPE = U
NORAD_CAT_ID   = 57800
ELEMENT_SET_NO = 999
REV_AT_EPOCH   = 14055
BSTAR          = .34432344E-3
MEAN_MOTION_DOT = .6112E-4
MEAN_MOTION_DDOT = 0

CCSDS_OMM_VERS = 2.0
CREATION_DATE  = 
ORIGINATOR     = 

OBJECT_NAME    = ACS3
OBJECT_ID      = 2024-077B
CENTER_NAME    = EARTH
REF_FRAME      = TEME
TIME_SYSTEM    = UTC
MEAN_ELEMENT_THEORY = SGP/SGP4

EPOCH          = 2026-03-27T20:29:05.506944
MEAN_MOTION    = 13.90429162
ECCENTRICITY   = .00721876
INCLINATION    = 97.1965
RA_OF_ASC_NODE = 23.8827
ARG_OF_PERICENTER = 35.0301
MEAN_ANOMALY   = 325.5581

EPHEMERIS_TYPE = 0
CLASSIFICATION_TYPE = U
NORAD_CAT_ID   = 59588
ELEMENT_SET_NO = 999
REV_AT_EPOCH   = 9672
BSTAR          = .1953653E-1
MEAN_MOTION_DOT = .24828E-3
MEAN_MOTION_DDOT = 0

CCSDS_OMM_VERS = 2.0
CREATION_DATE  = 
ORIGINATOR     = 

OBJECT_NAME    = SZ-21 MODULE
OBJECT_ID      = 2025-246C
CENTER_NAME    = EARTH
REF_FRAME      = TEME
TIME_SYSTEM    = UTC
MEAN_ELEMENT_THEORY = SGP/SGP4

EPOCH          = 2026-03-27T16:50:49.909056
MEAN_MOTION    = 15.69915920
ECCENTRICITY   = .00014544
INCLINATION    = 41.4743
RA_OF_ASC_NODE = 92.3645
ARG_OF_PERICENTER = 209.3733
MEAN_ANOMALY   = 150.7028

EPHEMERIS_TYPE = 0
CLASSIFICATION_TYPE = U
NORAD_CAT_ID   = 66515
ELEMENT_SET_NO = 999
REV_AT_EPOCH   = 2090
BSTAR          = .30140428E-3
MEAN_MOTION_DOT = .37039E-3
MEAN_MOTION_DDOT = 0

